{"type": "FeatureCollection", "features": [{"id": "0", "type": "Feature", "properties": {"OBJECTID": 66, "TA2023_V1_00": "016", "TA2023_V1_00_NAME": "Hamilton City", "TA2023_V1_00_NAME_ASCII": "Hamilton City", "LAND_AREA_SQ_KM": 110.37310035, "AREA_SQ_KM": 110.9366994, "Shape__Area": 110935334.234375, "Shape__Length": 70459.39493639598}, "geometry": {"type": "Polygon", "coordinates": [[[175.227780017154, -37.7228352155914], [175.227852100559, -37.7229109325483], [175.228173532692, -37.7226143317966], [175.228211816885, -37.7225615325411], [175.228232450526, -37.7224910988214], [175.228329917106, -37.7223876490366], [175.228445633517, -37.7221969326775], [175.228506984143, -37.7220337321826], [175.228443233555, -37.7219195488252], [175.22845361654, -37.7218126993049], [175.22842890044, -37.7216786325792], [175.228358699505, -37.7215848490482], [175.228351233762, -37.7215437153088], [175.228514882919, -37.7214135821627], [175.228544316328, -37.721341031852], [175.228585483388, -37.7212963658934], [175.22876831735, -37.7211732491624], [175.228752316883, -37.7209277153944], [175.228790966554, -37.7208925988093], [175.228827350838, -37.7208859485436], [175.228865167207, -37.7208940321771], [175.228953050001, -37.7209846323844], [175.229118667047, -37.721014281883], [175.229175483342, -37.7210093320775], [175.229247616944, -37.7209482151557], [175.229268317502, -37.7207546653424], [175.229375466451, -37.7206124655033], [175.229225982865, -37.7204592486978], [175.228850216037, -37.7201638987533], [175.228590367151, -37.7200393158569], [175.227835600006, -37.7198437826052], [175.228609400401, -37.7195794156437], [175.228836433166, -37.7194355157309], [175.232503750433, -37.7175147156377], [175.23319611724, -37.7171520321403], [175.234590066387, -37.7165857655292], [175.234517816969, -37.7164848656756], [175.234642200594, -37.716497615852], [175.236015807401, -37.7165899287329], [175.236762811537, -37.716640124439], [175.237596331755, -37.7166961279017], [175.239231720788, -37.7168060240569], [175.239605844182, -37.716831162189], [175.241228274343, -37.7169351074776], [175.242700134147, -37.7170217317561], [175.246021094022, -37.7172414947638], [175.246898084079, -37.7172969325302], [175.247569298229, -37.7177397564404], [175.248553317071, -37.7183889322576], [175.248664386592, -37.7183394128324], [175.250400283042, -37.7175654656892], [175.250698333854, -37.7174325822342], [175.251431340824, -37.7173403600838], [175.251976666948, -37.717277049069], [175.252175267373, -37.7170383652073], [175.252792250351, -37.7162996823949], [175.255880533522, -37.7124631321483], [175.255922583077, -37.7123864822292], [175.257328536604, -37.7106999728445], [175.2574744167, -37.7105249826834], [175.257565249695, -37.7104957654569], [175.260749210819, -37.7099484749287], [175.262174666844, -37.7097034488094], [175.26231246618, -37.7098319821072], [175.26245599997, -37.7099301992941], [175.262707850485, -37.7100562324467], [175.264463741581, -37.7106577972957], [175.267487334741, -37.711693587349], [175.26759002997, -37.7117287650084], [175.267688771713, -37.711762589423], [175.272675216865, -37.7134707992167], [175.275430266289, -37.7136719487696], [175.276277499641, -37.7137633659349], [175.276775183003, -37.714195899476], [175.279186033209, -37.7169006159258], [175.278634883822, -37.7188760493896], [175.278211733853, -37.7195420157052], [175.278318150192, -37.7195774173009], [175.279254066583, -37.719869932233], [175.283334549123, -37.7212506820461], [175.286196583051, -37.7221712984535], [175.286397516806, -37.7225680323463], [175.288770033381, -37.7219113318322], [175.289552166946, -37.7216947155012], [175.289743500044, -37.7217520820705], [175.28988273355, -37.7217937994508], [175.289546699886, -37.7224266655953], [175.289035549628, -37.7246345492649], [175.288395700637, -37.7274067653332], [175.288577382946, -37.7275968819159], [175.288514666297, -37.7278236325838], [175.287791466151, -37.7304701988386], [175.287449184075, -37.7317231322402], [175.287425233116, -37.7322034817218], [175.287413350658, -37.7324486159206], [175.28742441657, -37.7328036818299], [175.287722633536, -37.73394183185], [175.288263916809, -37.7358106659754], [175.288354749813, -37.7361243154695], [175.28867275041, -37.7372235321965], [175.288763099908, -37.7375362823018], [175.289200383278, -37.7390543818649], [175.289612533262, -37.7404539657273], [175.290171433491, -37.7416147989154], [175.291722183879, -37.7448357491665], [175.292156849989, -37.7457367660717], [175.292407499726, -37.7462565157402], [175.293363983997, -37.7482337320938], [175.293450316558, -37.748266865344], [175.297814083866, -37.747177165824], [175.29977542711, -37.7466870504243], [175.305431008029, -37.7452709546233], [175.306396649923, -37.745028999309], [175.306558249228, -37.7450849486975], [175.306717967243, -37.7451399488452], [175.314197567381, -37.7573833158973], [175.3142869517, -37.7573439181983], [175.315936350373, -37.7594223151068], [175.316701550738, -37.7600904658604], [175.317501400187, -37.7605218821675], [175.318312733182, -37.7611241655222], [175.318954583381, -37.7615614324391], [175.324085750738, -37.76477196522], [175.324709483325, -37.7651934321457], [175.326564983455, -37.7662711659283], [175.327191067196, -37.7667054320518], [175.330227633357, -37.7698755322214], [175.330484333123, -37.7701987654926], [175.33071063326, -37.7707138823598], [175.331760800435, -37.7725351325961], [175.333016167089, -37.7744786325376], [175.333888517079, -37.7767359488337], [175.335664282869, -37.7833223151905], [175.335861300164, -37.7838865658127], [175.33637868956, -37.7849715511422], [175.33765103265, -37.7867264659098], [175.338807949706, -37.7877312160026], [175.338528566157, -37.7879335991439], [175.339272048409, -37.7889429373977], [175.340581487562, -37.7901080297695], [175.340949170232, -37.7903667967851], [175.341122352283, -37.7904859305093], [175.341663666745, -37.7900934987759], [175.341703466982, -37.7901271324039], [175.344869683145, -37.7928777485409], [175.344725050086, -37.7928821992498], [175.344461099864, -37.7929511819269], [175.3442917506, -37.79308269904], [175.344192816514, -37.7931772320282], [175.344081233725, -37.793407032476], [175.344066750516, -37.7935236317303], [175.343931733927, -37.7936079989044], [175.343886883937, -37.7936641319648], [175.343807950165, -37.7938292820576], [175.34371206654, -37.7939135990754], [175.343554283871, -37.7939719157515], [175.343509266814, -37.7940574153917], [175.343282150216, -37.7942693659792], [175.342997367445, -37.7943515488773], [175.34278358273, -37.794447665732], [175.342582365976, -37.7945888158786], [175.342452067383, -37.7947594484483], [175.342395683688, -37.7947935821638], [175.342313416542, -37.7948097818447], [175.341863833892, -37.7948348822569], [175.341600700584, -37.7949664656733], [175.341512016702, -37.795054865876], [175.341426800129, -37.795227181712], [175.34141860074, -37.7953123990396], [175.341440049955, -37.795468615482], [175.341421066476, -37.7955594657533], [175.341350150792, -37.7956320157517], [175.34119785054, -37.7957107823522], [175.341128549699, -37.7956927822608], [175.340810800451, -37.7956869484547], [175.340477149721, -37.7955427987217], [175.340371366713, -37.7955243986957], [175.33998948343, -37.7955748992485], [175.339812249667, -37.7954974156388], [175.33962255069, -37.7954599491203], [175.339464033587, -37.7954855151939], [175.339211583282, -37.7956542159207], [175.338989833606, -37.7956945653099], [175.338879850724, -37.7956597323048], [175.338545250191, -37.795478615212], [175.338202433899, -37.7953800652862], [175.338158000254, -37.7953865157006], [175.338097150088, -37.795433615967], [175.33813825077, -37.7955201484761], [175.338229516575, -37.7956088324903], [175.33823258282, -37.7956540652465], [175.338139766572, -37.7956876326822], [175.338081833849, -37.7956745658404], [175.337936399895, -37.7955813819144], [175.337639119559, -37.7954373841207], [175.337396758655, -37.795373920944], [175.337308191708, -37.7954088551006], [175.337189710996, -37.7954231567475], [175.337056164066, -37.7954791751818], [175.336864331363, -37.7956999428156], [175.336801815497, -37.7957382930373], [175.336642851511, -37.7957779101578], [175.336500384902, -37.7957895448385], [175.33645700338, -37.7957769616301], [175.336142503138, -37.7958989440726], [175.335956102568, -37.795919327431], [175.335831371241, -37.7958526947847], [175.335678787323, -37.7958452268946], [175.335574454766, -37.7957938276124], [175.335438055717, -37.7957885606553], [175.33529537085, -37.7958080921357], [175.335027463191, -37.7960142217683], [175.334959025338, -37.7961416519507], [175.334905621672, -37.7963686836238], [175.334751704017, -37.796582949537], [175.334646785488, -37.7966735166004], [175.33438898597, -37.7968262000355], [175.334314618119, -37.7970712822396], [175.334220718333, -37.7971845318963], [175.334150350407, -37.7972233157414], [175.334034216592, -37.7972515325927], [175.333554616532, -37.7972550817396], [175.333456483682, -37.7973268985718], [175.333424900751, -37.7973778158065], [175.333398166556, -37.7974944656479], [175.333413934115, -37.7975872492839], [175.333476333271, -37.7976478484945], [175.333774449665, -37.7977278489057], [175.333878933216, -37.7977768155011], [175.333928583962, -37.7978195489586], [175.334027400445, -37.7982006656246], [175.334071599791, -37.7982647323648], [175.334209632636, -37.7983781990639], [175.33424658323, -37.7984471656109], [175.33428945048, -37.7986192486674], [175.334382216185, -37.7988656988221], [175.334391567403, -37.7989744487106], [175.334201799971, -37.7993768323938], [175.334073633773, -37.7995611991906], [175.333972116856, -37.799597532042], [175.333916816954, -37.7996959487476], [175.333864616434, -37.7997231991874], [175.333617883829, -37.799760949225], [175.333562234013, -37.799782098736], [175.333432865906, -37.7999547991748], [175.333265950734, -37.8000100490856], [175.333223684149, -37.800081415618], [175.333250216981, -37.8001629317165], [175.333242333907, -37.800213365748], [175.333194133759, -37.8002827988685], [175.333145316665, -37.8003164656046], [175.3330605665, -37.800346481927], [175.332835317331, -37.8003772318066], [175.332493200444, -37.8004534823051], [175.332395633188, -37.8004900158289], [175.332281816017, -37.8005930990329], [175.332409149862, -37.8006812488032], [175.332417883626, -37.8007351158549], [175.332354183139, -37.8008175986079], [175.332339233498, -37.8008665991811], [175.332323633714, -37.8012914653616], [175.332283066227, -37.801387648457], [175.33215356598, -37.8015492157415], [175.332142800464, -37.8017443990349], [175.332113566611, -37.801872199128], [175.332143049922, -37.8019492153397], [175.332223816578, -37.8020203658651], [175.332279783611, -37.802042515534], [175.332418650087, -37.8020564654986], [175.332510899478, -37.8021015321482], [175.332531483037, -37.802205915343], [175.33247468411, -37.8023418824558], [175.332274800727, -37.8025231317041], [175.332219583279, -37.8026094320651], [175.332225066162, -37.8027658322387], [175.332205732714, -37.8028414156327], [175.332166933538, -37.8029072324201], [175.332091882784, -37.8029736825095], [175.332049400348, -37.8030355657743], [175.3319672159, -37.8032935324845], [175.331943050193, -37.803442349291], [175.331860333467, -37.8035386488007], [175.331806233475, -37.8036575487536], [175.331804600556, -37.8037095818683], [175.33184481721, -37.8038315152007], [175.331835750494, -37.8038991661863], [175.331797333227, -37.8039556323443], [175.33164215018, -37.8041012151688], [175.331601716976, -37.8041693151616], [175.331630783502, -37.8043020991237], [175.331629266606, -37.8044857818408], [175.331806933565, -37.8046400319352], [175.331854033543, -37.8047201992908], [175.331868300772, -37.8047958317604], [175.331855500736, -37.8048897985645], [175.331812933051, -37.8049536316815], [175.331751066934, -37.8049969316782], [175.331653134655, -37.8050268981113], [175.331637184748, -37.8050666313173], [175.331741284796, -37.8052076318146], [175.331782602425, -37.8054251147607], [175.331657069855, -37.8058882652109], [175.33146845346, -37.8059922819305], [175.331394537451, -37.8060019810204], [175.331223769358, -37.8059758321661], [175.331080618952, -37.8060010820767], [175.330892352608, -37.8060031151665], [175.3306902325, -37.8059261666606], [175.330605966713, -37.8059317996608], [175.330539449999, -37.8059694157291], [175.330402484826, -37.8061607266021], [175.330287450543, -37.8063444825205], [175.330275333945, -37.8064366667116], [175.330297983118, -37.8065075665366], [175.330342200453, -37.8065528834534], [175.33060301837, -37.8066343333758], [175.3306192521, -37.8067183499501], [175.330599452436, -37.8067918994333], [175.330374834565, -37.8071211668051], [175.330352034059, -37.8072315328443], [175.330366167563, -37.8072590161046], [175.330420951366, -37.8072944997458], [175.330597884766, -37.807338482754], [175.330644985652, -37.8073631831231], [175.330701052505, -37.8074112165383], [175.330823585597, -37.8075845667059], [175.330901519445, -37.8076443161976], [175.33108625211, -37.8076476318354], [175.331271885345, -37.8076061331534], [175.331321152837, -37.8076036166957], [175.331355420094, -37.8076188332505], [175.331376436077, -37.8076913502682], [175.331349018871, -37.8078240325207], [175.331293986298, -37.8079418161578], [175.331221284023, -37.8080116489303], [175.33109713397, -37.8081217986661], [175.33107005075, -37.808171050102], [175.331051100015, -37.8084041499644], [175.331010349933, -37.8084460826325], [175.330816566117, -37.8084973654736], [175.330608700366, -37.8085291820347], [175.330560383941, -37.8085743155591], [175.330547166694, -37.8086369490714], [175.33056746646, -37.8086699819682], [175.330935116519, -37.8088278986402], [175.331291933099, -37.8091183824579], [175.331340533029, -37.8091949157087], [175.33131125059, -37.8094054151969], [175.331346033901, -37.8094700819673], [175.331443249442, -37.8095105822433], [175.331544766082, -37.809620965673], [175.33145771587, -37.8096547652945], [175.331312067342, -37.8097688986495], [175.331265350142, -37.8099174156283], [175.331051900343, -37.8101805155391], [175.331049050048, -37.8102741320227], [175.331119633274, -37.8105005821985], [175.331101900644, -37.8105818991174], [175.331056099582, -37.8106437657285], [175.330911167526, -37.8107511817981], [175.330692799993, -37.8108331490399], [175.33053661657, -37.8108691987425], [175.330165783362, -37.810991232068], [175.329994916979, -37.8110874158483], [175.329957800439, -37.8111536158371], [175.329952883254, -37.8112295488329], [175.329973817288, -37.8112945153012], [175.33009110046, -37.8114927321815], [175.330090232686, -37.8115224984326], [175.330069500469, -37.811546715752], [175.329967266813, -37.8115711988085], [175.329738600163, -37.8115701323498], [175.329677399422, -37.8115892822108], [175.32958499962, -37.8117384492573], [175.329574716834, -37.8118219155357], [175.329593683741, -37.8118839652775], [175.329683200709, -37.8119816654697], [175.329705617252, -37.8120347158092], [175.329706750237, -37.812123899168], [175.329645049561, -37.8121831989412], [175.329530049734, -37.8122183657417], [175.329401384123, -37.8122374490649], [175.329127667363, -37.812234365709], [175.329008567348, -37.8122592158528], [175.328693616087, -37.8124039155472], [175.328633534017, -37.8124463325131], [175.328631383685, -37.8125059317788], [175.328658134162, -37.8125641159605], [175.328723816463, -37.8126298160004], [175.328858783445, -37.8126586156828], [175.328912300402, -37.812704532192], [175.32894020024, -37.8128755324423], [175.328922166602, -37.8129340987069], [175.328860217168, -37.8129815486052], [175.328700067398, -37.8130377984699], [175.328505049595, -37.8130760158114], [175.328453933158, -37.8131039994577], [175.328460333153, -37.8131571153805], [175.328510883405, -37.8132518320821], [175.328672616606, -37.8134165484124], [175.328650167214, -37.8134765158261], [175.328575833641, -37.8135109485625], [175.328548133812, -37.8135684488724], [175.328545933837, -37.8136589651526], [175.328628216831, -37.8138108320597], [175.32862658336, -37.8138944317568], [175.328590132822, -37.8139758319627], [175.328506949931, -37.8140643318934], [175.328430367226, -37.8141006987008], [175.328326317248, -37.8141039820189], [175.328211549691, -37.8141384491023], [175.328147550825, -37.8141779821674], [175.328109016416, -37.8142463317899], [175.328115133838, -37.8145744662237], [175.328080167549, -37.8146244658126], [175.327953366268, -37.8146993818313], [175.327931150128, -37.8147639826245], [175.327972916758, -37.8148671158652], [175.328102017502, -37.814962948619], [175.328139600023, -37.8150123318045], [175.328120383722, -37.8150917491957], [175.328054499922, -37.8151086992737], [175.327950099822, -37.8151008485047], [175.327653349897, -37.8150288823883], [175.327285416882, -37.814820865756], [175.327123666569, -37.8146824825773], [175.32702969972, -37.8145568819605], [175.32692026596, -37.8143321821501], [175.326923516472, -37.8140361490933], [175.326891866614, -37.813918248688], [175.326744833456, -37.8138084823906], [175.326651299398, -37.8137877322567], [175.326279833108, -37.8137593319015], [175.3260404005, -37.813786815284], [175.325778334079, -37.8138696323911], [175.325684017436, -37.8138763823902], [175.325433499375, -37.8138449151555], [175.325165566237, -37.8137835159687], [175.325066033204, -37.8137380153853], [175.324917450378, -37.8136229651853], [175.32458450007, -37.812991749303], [175.324352667539, -37.8126818986519], [175.324298283836, -37.8125806657736], [175.324262566892, -37.8123854159123], [175.324290466976, -37.8120845156787], [175.324284750809, -37.8119704991231], [175.324249700703, -37.811860631949], [175.324132817348, -37.8116314823822], [175.323942333478, -37.8113535653263], [175.323745916185, -37.8109912819936], [175.32361691652, -37.8109122492791], [175.323371749987, -37.8108670485437], [175.323138099196, -37.8114748318083], [175.323033032761, -37.8118909990921], [175.322981683124, -37.8123793991884], [175.322990999323, -37.8130269156557], [175.323046032949, -37.8134923653101], [175.323175617209, -37.814016732373], [175.323376050475, -37.8145252658433], [175.323612466209, -37.8149607322812], [175.324018099314, -37.8155907484879], [175.324535683798, -37.8162938324804], [175.325275250059, -37.817238682237], [175.325598516709, -37.8175941654975], [175.325878650392, -37.8178341989604], [175.326135384127, -37.8180236152082], [175.326772699901, -37.818437498893], [175.327726200203, -37.8190245322862], [175.328112016776, -37.8192909995103], [175.328593066983, -37.8196748825615], [175.328703966444, -37.8197691992272], [175.328748966745, -37.819875832078], [175.328893983266, -37.8199743659224], [175.329063234064, -37.8201333492291], [175.329306249873, -37.8204331325803], [175.32964795084, -37.8208785489188], [175.3299251008, -37.8213268989239], [175.330241616929, -37.8220008817229], [175.330372483153, -37.8223430657168], [175.330368516823, -37.8223943987463], [175.330400533246, -37.8224420655784], [175.330438750747, -37.8226160986619], [175.330449234151, -37.8228046653995], [175.330441299945, -37.8229916656025], [175.330416032587, -37.82311736528], [175.330329366761, -37.8234186157874], [175.330199149385, -37.823762882283], [175.330048917083, -37.8241240823346], [175.329797367174, -37.8246232157227], [175.329650633699, -37.8246785158313], [175.329698333279, -37.8247836989185], [175.329519433146, -37.8250655155286], [175.329148200339, -37.8255357159691], [175.328945466432, -37.8257280821715], [175.328749617513, -37.826046198871], [175.328570216954, -37.8262713987317], [175.328378483391, -37.8264544323537], [175.328159400293, -37.8266079484587], [175.327885050131, -37.8267576990792], [175.32716694929, -37.8270919986601], [175.326904850108, -37.8272350158022], [175.326778600652, -37.8273596991712], [175.3264211339, -37.8272169655796], [175.32598568392, -37.8270220319165], [175.32512963312, -37.8281265154912], [175.323993183645, -37.8292024986985], [175.32363181585, -37.8303512651291], [175.319956467476, -37.8335400988219], [175.318905299621, -37.8340280656707], [175.314513616694, -37.8360817654949], [175.313139949436, -37.8377852319197], [175.311330682811, -37.8400277151713], [175.308971283011, -37.8419630991805], [175.308090466293, -37.8456592656847], [175.30807286649, -37.8457892989249], [175.308057865926, -37.8458912487992], [175.307621333069, -37.8458323657204], [175.306985749918, -37.8459970325332], [175.306843183208, -37.8460389818785], [175.305606533639, -37.8430377319784], [175.305613300004, -37.8428922991043], [175.305555350158, -37.8429083488612], [175.305558050081, -37.842849465569], [175.305615983352, -37.8428334323563], [175.305678300597, -37.8414834988987], [175.305525383839, -37.8408069485503], [175.30510366616, -37.8402788485942], [175.3031442835, -37.8387470824152], [175.303088666914, -37.8387211321293], [175.302343482705, -37.837783498871], [175.30229638251, -37.8378055318688], [175.301546133825, -37.8368236492633], [175.301595000343, -37.8368001492292], [175.301396566817, -37.8365447152462], [175.301348833359, -37.8365694987875], [175.301168966986, -37.8363380319955], [175.301217166454, -37.836313548506], [175.300569033469, -37.835479449177], [175.297928083886, -37.8320805158255], [175.297875500194, -37.8320990991067], [175.297702849886, -37.831876916095], [175.29775568392, -37.8318583487315], [175.297152116737, -37.8291861817829], [175.296841649179, -37.827813532554], [175.2958598665, -37.8279597991242], [175.295283195045, -37.8281498179499], [175.294504900473, -37.8284062659076], [175.293967884009, -37.8290524992727], [175.29333753338, -37.8308719158324], [175.293051299891, -37.8307806323552], [175.292829584014, -37.8312178151061], [175.292515849839, -37.8311177491382], [175.292473216482, -37.8312018993088], [175.292430615961, -37.8312860488246], [175.292584500399, -37.8313351321916], [175.292336433316, -37.8317627984969], [175.291582232597, -37.8315221821689], [175.290822917475, -37.830902365149], [175.290438800204, -37.831574765271], [175.289675866489, -37.8317863992518], [175.289162917429, -37.8315680320104], [175.2845622497, -37.8296086653979], [175.283007166725, -37.8289477819776], [175.283843317169, -37.8277183158841], [175.284732965912, -37.8264101655091], [175.283617350273, -37.825892081787], [175.280747099943, -37.8245598653717], [175.279981000092, -37.8242060654699], [175.27960561685, -37.8242538663399], [175.27955536697, -37.8240049157885], [175.279546583055, -37.8239610985967], [175.278949556252, -37.8240334663267], [175.277341166888, -37.8242368661378], [175.274554016974, -37.8245887651752], [175.274424815931, -37.8241920656785], [175.274361649538, -37.8241032486821], [175.274337199807, -37.8240121319256], [175.271885099845, -37.8243307152677], [175.271664800111, -37.8238442651917], [175.271298466931, -37.8230354657073], [175.272382934014, -37.8221920154469], [175.271305533516, -37.8204698653413], [175.271238334156, -37.8203928157319], [175.271183933047, -37.820316098617], [175.27072476658, -37.8205574824304], [175.26806941692, -37.8219570989938], [175.267419967371, -37.8201262984274], [175.266896866946, -37.8186001488457], [175.266730549412, -37.8180305154328], [175.266353817357, -37.8165485155805], [175.266299917091, -37.8162891484416], [175.266161000612, -37.8155480659984], [175.2660353663, -37.8147225997346], [175.265925933828, -37.8137451159297], [175.265862434146, -37.812860348615], [175.265832216843, -37.8119616659045], [175.265885267068, -37.8089690322072], [175.265590216975, -37.8089029492561], [175.26530774995, -37.8088535487274], [175.25946113388, -37.807446466443], [175.259309233461, -37.8074097823039], [175.256175966896, -37.8066561818467], [175.25476146587, -37.8063160655453], [175.253311117337, -37.8059670488112], [175.253203050363, -37.8059417986463], [175.251995516776, -37.805651448459], [175.250636850226, -37.8053257660711], [175.246088183879, -37.8042352986738], [175.246026033671, -37.8042203987394], [175.245962800115, -37.804318182556], [175.245640383452, -37.8048163318083], [175.243807600314, -37.8043755485124], [175.243339233332, -37.8047921155615], [175.243301467199, -37.8047575984448], [175.243091183716, -37.8049443489952], [175.242683749381, -37.8053069824509], [175.242726367281, -37.8053370989691], [175.240883183241, -37.8069762323675], [175.240331649978, -37.8065785162449], [175.23149278297, -37.8144446326685], [175.230658716019, -37.8152689823979], [175.230136733998, -37.8156323323127], [175.227335966902, -37.8171151329345], [175.226805533472, -37.8175330160783], [175.230129637433, -37.8184242007289], [175.233368995302, -37.8192940754942], [175.232469533645, -37.8218557988857], [175.231375250447, -37.8214118988256], [175.229264399488, -37.8245982818118], [175.227317917044, -37.8246184158476], [175.226934100002, -37.8260730487792], [175.226074400012, -37.8293478324804], [175.226049533394, -37.8293439825988], [175.225715183733, -37.830617549286], [175.225685783765, -37.830785682254], [175.225663300446, -37.8311976823363], [175.22564025083, -37.8322341151025], [175.218187433763, -37.8323066656635], [175.21788778373, -37.832301049035], [175.217554266915, -37.8322989487794], [175.216341299579, -37.8323409655783], [175.211827766901, -37.8323986651685], [175.211685699985, -37.8253671817336], [175.211602550095, -37.8209504157843], [175.211486066327, -37.8209515991007], [175.211419050406, -37.818338699391], [175.211327200618, -37.8144069323853], [175.21267993394, -37.8143988651944], [175.218253033263, -37.8143649158048], [175.218668666496, -37.8131436984912], [175.219115633821, -37.8126432655317], [175.21968186669, -37.8113918652544], [175.220799567166, -37.8106156320197], [175.223064832482, -37.8095441653143], [175.228277600782, -37.8070454158256], [175.228795049912, -37.8066206991194], [175.228872616811, -37.8065185319813], [175.229426133785, -37.8055759488526], [175.231610284064, -37.8032481652627], [175.231518699298, -37.8031939991023], [175.231667300513, -37.8022036652381], [175.2322621332, -37.8001763155692], [175.232547316875, -37.7991398655782], [175.233050933545, -37.797309598426], [175.232309233513, -37.7972789489686], [175.229725933955, -37.7972497485399], [175.229593066595, -37.7972368826087], [175.229472550444, -37.7972088659487], [175.228134150169, -37.7967177654455], [175.22815094928, -37.796509481962], [175.228162166457, -37.796329232536], [175.228556116993, -37.7948601490211], [175.228714083679, -37.7935444158955], [175.229311433628, -37.7885913655549], [175.229485834135, -37.787163565894], [175.228453016306, -37.7868313154626], [175.227957533757, -37.7865499986309], [175.226056717324, -37.7866787325199], [175.224461583246, -37.7859030487702], [175.224524999914, -37.785620565299], [175.223716966207, -37.7847895489119], [175.223618949954, -37.784662015769], [175.222871982959, -37.7848172320814], [175.221130933308, -37.7851788154518], [175.220913217046, -37.7842313158094], [175.220992299303, -37.7837251491135], [175.221436284096, -37.7830394823387], [175.2211335172, -37.7830069488158], [175.220566550777, -37.7829460328867], [175.220592066908, -37.7826082321666], [175.220290866758, -37.782359948865], [175.219388033285, -37.7824399657003], [175.218996350434, -37.7828015824118], [175.21852899925, -37.7825378323736], [175.218176749936, -37.7814202152544], [175.219814816842, -37.7800398655898], [175.219316488418, -37.7794240393661], [175.218568366148, -37.7784994988481], [175.218423717389, -37.778389232351], [175.218493166254, -37.7781128658693], [175.219573917226, -37.7770621492004], [175.219611233997, -37.7768578157835], [175.219370800281, -37.776478065786], [175.219143850717, -37.7761172827993], [175.218610016768, -37.7757800152604], [175.218081850483, -37.7754391329938], [175.217609416739, -37.7741661494533], [175.218082199546, -37.7719009653575], [175.217564499254, -37.7697850157815], [175.218124083195, -37.767447881738], [175.218188450135, -37.7671793985996], [175.215963133045, -37.7673413991019], [175.213953716826, -37.7659441321622], [175.21384698306, -37.7658852822857], [175.213064799622, -37.7671954822441], [175.208451766808, -37.7698898153], [175.20832140069, -37.7698530655619], [175.205971617422, -37.7694104321257], [175.20615836709, -37.7690768991652], [175.205353517243, -37.7688874654845], [175.205057083481, -37.7685063656946], [175.204834050483, -37.7685847988887], [175.203834133806, -37.7672550657156], [175.203903150168, -37.7665518320362], [175.203669983404, -37.7665945153253], [175.204080433172, -37.7661770161671], [175.20206626695, -37.7643765651275], [175.20250190055, -37.7634767818729], [175.209384383903, -37.7626550152781], [175.209637916184, -37.7624563152358], [175.209398316429, -37.7623332489217], [175.208688367246, -37.7606133655817], [175.207834966429, -37.7595725489975], [175.207287882537, -37.7586001318898], [175.207136216045, -37.758282531748], [175.206565633533, -37.7572216158094], [175.205844883553, -37.7566078151824], [175.204909216207, -37.7561390317538], [175.204596116235, -37.7560278654482], [175.203315450192, -37.7549473487891], [175.203156150023, -37.7547528652365], [175.203115132882, -37.7545291985946], [175.203069383308, -37.7537352486553], [175.203032167513, -37.7534181651383], [175.202584150384, -37.7533454491007], [175.199747799987, -37.7536600651751], [175.199412267334, -37.7536664490962], [175.199257767559, -37.753482849275], [175.198867450637, -37.7529440485504], [175.198428783116, -37.7526628658977], [175.198061516351, -37.7509554991472], [175.196077799861, -37.7505901152317], [175.192448216234, -37.7502015492539], [175.190813050275, -37.7501720987216], [175.190581432524, -37.7499410655704], [175.191644183468, -37.7481929654552], [175.191039816656, -37.7458390825454], [175.189479249869, -37.7450466153106], [175.188321383332, -37.7448155986539], [175.187288715928, -37.7438687321895], [175.185255733537, -37.7432994317937], [175.184300699849, -37.742992032005], [175.187265483124, -37.7421076487315], [175.188212433545, -37.742114049101], [175.194657267398, -37.7423179320876], [175.195011033988, -37.742189532393], [175.197451083633, -37.7409212824364], [175.197838733427, -37.7408000824904], [175.200025500162, -37.7403964824705], [175.202296216425, -37.7401077489014], [175.20282460017, -37.740062631874], [175.202997949872, -37.7400554985094], [175.20318566627, -37.7400698484637], [175.20397548344, -37.740200798437], [175.205641983222, -37.7405704490055], [175.205961849973, -37.7375483492599], [175.206196650756, -37.7367890491446], [175.206622366809, -37.7359229829379], [175.209805116884, -37.7328231656626], [175.208122896026, -37.7282633558009], [175.207743816248, -37.7272357492279], [175.207446633702, -37.7261541484481], [175.207232883062, -37.7252492824549], [175.207202083949, -37.7246483324071], [175.20720970086, -37.7235257662737], [175.20727695035, -37.7223640655823], [175.208055633359, -37.7202783492189], [175.208491383563, -37.7201589157584], [175.208210733466, -37.7194612653428], [175.208263499892, -37.7192789489669], [175.208513699433, -37.7183602317682], [175.208542800341, -37.7172872821189], [175.208366399463, -37.7162436991558], [175.207287400101, -37.7129804489835], [175.207299733682, -37.7086157657199], [175.211050332843, -37.6993296485463], [175.211325016313, -37.699463065543], [175.21191025069, -37.6997921654172], [175.212697400107, -37.7003595822863], [175.213267483015, -37.7007434485932], [175.215028450059, -37.7018167987079], [175.215514134105, -37.7021637818558], [175.215842282617, -37.7024437657179], [175.21605281611, -37.7027155157167], [175.216176550196, -37.7030080995404], [175.216230784073, -37.7032584990819], [175.216281783093, -37.7037129991761], [175.216387200555, -37.7043113992015], [175.216593516459, -37.705711581775], [175.216949032682, -37.7071992319739], [175.21716366613, -37.7082421153395], [175.217199517192, -37.7083006653022], [175.217219716955, -37.7084897656577], [175.217535450763, -37.7096139151322], [175.217716250311, -37.7105977486612], [175.217742633041, -37.7108504492055], [175.217951916422, -37.7116605822587], [175.218054067462, -37.711945098724], [175.218250317114, -37.7123521159875], [175.218733750344, -37.7131453822624], [175.218971350698, -37.7136049486025], [175.219109683261, -37.7138186163953], [175.219456327355, -37.7142174012624], [175.21945639947, -37.714217499032], [175.220515400357, -37.7154810325557], [175.220828017306, -37.7159052163904], [175.220965666743, -37.716133548472], [175.221367450218, -37.7167040659802], [175.221521400391, -37.7169582318584], [175.22191926683, -37.7177880987814], [175.222084816684, -37.7180867652387], [175.222437483943, -37.7186681491774], [175.222710350813, -37.7190550986589], [175.222906366651, -37.7192572488612], [175.223158966421, -37.719444882276], [175.223422116928, -37.719598032287], [175.223852899912, -37.71981583236], [175.224603533349, -37.7202631490713], [175.224616950015, -37.7202714658183], [175.224973300064, -37.7204874659373], [175.225271884041, -37.7207063320266], [175.226151699955, -37.7215600994986], [175.226389616591, -37.7217490322308], [175.226830366841, -37.7220509155345], [175.227360633303, -37.7224416824652], [175.227609149864, -37.7226682492632], [175.227648416251, -37.7227441992424], [175.227780017154, -37.7228352155914]]]}}]}